[{"OBJECT_NAME":"CONTINUUM-1","OBJECT_ID":"2023-001AN","EPOCH":"2026-03-09T23:17:35.458656","MEAN_MOTION":15.27981258,"ECCENTRICITY":0.00109493,"INCLINATION":97.3456,"RA_OF_ASC_NODE":133.3964,"ARG_OF_PERICENTER":60.1976,"MEAN_ANOMALY":300.0351,"EPHEMERIS_TYPE":0,"CLASSIFICATION_TYPE":"U","NORAD_CAT_ID":55045,"ELEMENT_SET_NO":999,"REV_AT_EPOCH":17709,"BSTAR":0.00052859897,"MEAN_MOTION_DOT":0.00014395,"MEAN_MOTION_DDOT":0},{"OBJECT_NAME":"STARLINK-31632","OBJECT_ID":"2024-057G","EPOCH":"2026-03-09T09:25:25.151808","MEAN_MOTION":15.27596218,"ECCENTRICITY":0.00013869,"INCLINATION":42.9986,"RA_OF_ASC_NODE":199.994,"ARG_OF_PERICENTER":285.8027,"MEAN_ANOMALY":74.2672,"EPHEMERIS_TYPE":0,"CLASSIFICATION_TYPE":"U","NORAD_CAT_ID":59326,"ELEMENT_SET_NO":999,"REV_AT_EPOCH":10966,"BSTAR":-0.00011518227,"MEAN_MOTION_DOT":-3.432e-5,"MEAN_MOTION_DDOT":0}]
